NORAD_CAT_ID,OBJECT_NAME,OBJECT_TYPE,EPOCH,MEAN_MOTION,ECCENTRICITY,INCLINATION,RA_OF_ASC_NODE,ARG_OF_PERICENTER,MEAN_ANOMALY,BSTAR,MEAN_MOTION_DOT,MEAN_MOTION_DDOT,TLE_LINE0,TLE_LINE1,TLE_LINE2,SEMIMAJOR_AXIS,PERIOD,APOGEE,PERIGEE,DECAYED
53269.0,STARLINK-4057,PAYLOAD,2023-03-16 04:39:08,15.08843653,0.0001089,53.2185,35.0548,96.5133,263.5983,0.0017252,0.00027278,0.0,0 STARLINK-4057,1 53269U 22086AD  23075.19384501  .00027278  00000-0  17252-2 0  9996,2 53269  53.2185  35.0548 0001089  96.5133 263.5983 15.08843653 36548,6917.869,95.437,540.488,538.981,0.0
53269.0,STARLINK-4057,PAYLOAD,2023-03-16 07:49:54,15.08849848,0.0001164,53.2185,34.459,98.5534,261.559,0.0014473,0.00022827,0.0,0 STARLINK-4057,1 53269U 22086AD  23075.32632415  .00022827  00000-0  14473-2 0  9998,2 53269  53.2185  34.4590 0001164  98.5534 261.5590 15.08849848 36745,6917.85,95.437,540.521,538.91,0.0
53269.0,STARLINK-4057,PAYLOAD,2023-03-16 20:32:59,15.08835743,0.0001701,53.218,32.0783,136.9118,223.2008,0.00036318,5.496e-05,0.0,0 STARLINK-4057,1 53269U 22086AD  23075.85624605  .00005496  00000-0  36318-3 0  9994,2 53269  53.2180  32.0783 0001701 136.9118 223.2008 15.08835743 36647,6917.893,95.438,540.935,538.582,0.0
53269.0,STARLINK-4057,PAYLOAD,2023-03-17 14:02:14,15.08838564,0.0001011,53.2176,28.8087,97.7015,262.4092,7.178e-05,8.55e-06,0.0,0 STARLINK-4057,1 53269U 22086AD  23076.58488743  .00000855  00000-0  71780-4 0  9993,2 53269  53.2176  28.8087 0001011  97.7015 262.4092 15.08838564 36930,6917.885,95.438,540.449,539.05,0.0
53269.0,STARLINK-4057,PAYLOAD,2023-03-17 20:23:47,15.08837182,0.0001184,53.2183,27.6211,91.925,268.1877,0.00016406,2.324e-05,0.0,0 STARLINK-4057,1 53269U 22086AD  23076.84985123  .00002324  00000-0  16406-3 0  9992,2 53269  53.2183  27.6211 0001184  91.9250 268.1877 15.08837182 36795,6917.889,95.438,540.573,538.935,0.0
53269.0,STARLINK-4057,PAYLOAD,2023-03-18 13:53:01,15.08841612,0.0001253,53.218,24.3496,91.9417,268.1719,0.00015147,2.124e-05,0.0,0 STARLINK-4057,1 53269U 22086AD  23077.57848931  .00002124  00000-0  15147-3 0  9997,2 53269  53.2180  24.3496 0001253  91.9417 268.1719 15.08841612 37084,6917.875,95.437,540.607,538.874,0.0
53269.0,STARLINK-4057,PAYLOAD,2023-03-19 02:36:06,15.08846896,0.000124,53.2182,21.9698,97.7594,262.3539,0.00022843,3.35e-05,0.0,0 STARLINK-4057,1 53269U 22086AD  23078.10840806  .00003350  00000-0  22843-3 0  9993,2 53269  53.2182  21.9698 0001240  97.7594 262.3539 15.08846896 36982,6917.859,95.437,540.582,538.866,0.0
53269.0,STARLINK-4057,PAYLOAD,2023-03-19 13:43:48,15.08843966,0.000128,53.2186,19.891,87.8715,272.2423,0.0001562,2.199e-05,0.0,0 STARLINK-4057,1 53269U 22086AD  23078.57208908  .00002199  00000-0  15620-3 0  9990,2 53269  53.2186  19.8910 0001280  87.8715 272.2423 15.08843966 37234,6917.868,95.437,540.619,538.848,0.0
53269.0,STARLINK-4057,PAYLOAD,2023-03-19 20:05:21,15.08844323,0.0001766,53.2186,18.7012,89.8831,270.2364,0.00018405,2.643e-05,0.0,0 STARLINK-4057,1 53269U 22086AD  23078.83705156  .00002643  00000-0  18405-3 0  9994,2 53269  53.2186  18.7012 0001766  89.8831 270.2364 15.08844323 37099,6917.867,95.437,540.954,538.51,0.0
53269.0,STARLINK-4057,PAYLOAD,2023-03-19 21:40:44,15.08839259,0.0001239,53.2191,18.4045,101.9613,258.1518,5.6636e-05,6.14e-06,0.0,0 STARLINK-4057,1 53269U 22086AD  23078.90329061  .00000614  00000-0  56636-4 0  9994,2 53269  53.2191  18.4045 0001239 101.9613 258.1518 15.08839259 37286,6917.883,95.438,540.605,538.891,0.0
53269.0,STARLINK-4057,PAYLOAD,2023-03-20 05:37:39,15.08856158,0.0001414,53.2181,16.9154,102.9813,257.1337,0.00045646,6.987e-05,0.0,0 STARLINK-4057,1 53269U 22086AD  23079.23448574  .00006987  00000-0  45646-3 0  9999,2 53269  53.2181  16.9154 0001414 102.9813 257.1337 15.08856158 37158,6917.831,95.437,540.674,538.718,0.0
53269.0,STARLINK-4057,PAYLOAD,2023-03-21 05:28:27,15.08858375,0.0001169,53.2185,12.455,87.9584,272.1542,0.0011242,0.00017658,0.0,0 STARLINK-4057,1 53269U 22086AD  23080.22809061  .00017658  00000-0  11242-2 0  9993,2 53269  53.2185  12.4550 0001169  87.9584 272.1542 15.08858375 37302,6917.824,95.436,540.498,538.881,0.0
53269.0,STARLINK-4057,PAYLOAD,2023-03-22 05:19:14,15.08859592,9.01e-05,53.2193,7.9961,71.1255,288.9835,0.0016378,0.00025888,0.0,0 STARLINK-4057,1 53269U 22086AD  23081.22169674  .00025888  00000-0  16378-2 0  9992,2 53269  53.2193   7.9961 0000901  71.1255 288.9835 15.08859592 37457,6917.821,95.436,540.309,539.062,0.0
53269.0,STARLINK-4057,PAYLOAD,2023-03-23 01:59:15,15.08858574,8.72e-05,53.218,4.1312,103.426,256.6829,0.0013978,0.00022039,0.0,0 STARLINK-4057,1 53269U 22086AD  23082.08281397  .00022039  00000-0  13978-2 0  9992,2 53269  53.2180   4.1312 0000872 103.4260 256.6829 15.08858574 37582,6917.824,95.436,540.292,539.085,0.0
53269.0,STARLINK-4057,PAYLOAD,2023-03-23 05:10:01,15.08871017,9.01e-05,53.2182,3.5358,97.4434,262.6661,0.0017378,0.00027501,0.0,0 STARLINK-4057,1 53269U 22086AD  23082.21529125  .00027501  00000-0  17378-2 0  9998,2 53269  53.2182   3.5358 0000901  97.4434 262.6661 15.08871017 37785,6917.786,95.436,540.274,539.027,0.0
53269.0,STARLINK-4057,PAYLOAD,2023-03-23 22:39:16,15.08846918,8.9e-05,53.2178,0.2654,63.3067,296.8016,0.0016984,0.0002685,0.0,0 STARLINK-4057,1 53269U 22086AD  23082.94393886  .00026850  00000-0  16984-2 0  9999,2 53269  53.2178   0.2654 0000890  63.3067 296.8016 15.08846918 37891,6917.859,95.437,540.34,539.109,0.0
53269.0,STARLINK-4057,PAYLOAD,2023-03-24 03:25:25,15.08903014,9.7e-05,53.2173,359.3727,65.755,294.3543,0.0058414,0.00094083,0.0,0 STARLINK-4057,1 53269U 22086AD  23083.14265660  .00094083  00000-0  58414-2 0  9997,2 53269  53.2173 359.3727 0000970  65.7550 294.3543 15.08903014 37740,6917.688,95.434,540.224,538.882,0.0
53269.0,STARLINK-4057,PAYLOAD,2023-03-24 22:30:02,15.08886077,0.0001391,53.2168,355.805,48.3992,311.7119,0.0017763,0.00028131,0.0,0 STARLINK-4057,1 53269U 22086AD  23083.93752395  .00028131  00000-0  17763-2 0  9993,2 53269  53.2168 355.8050 0001391  48.3992 311.7119 15.08886077 38045,6917.74,95.435,540.567,538.642,0.0
53269.0,STARLINK-4057,PAYLOAD,2023-03-25 03:16:10,15.08911542,0.0001332,53.2167,354.9128,74.1252,285.9887,0.0023605,0.00037554,0.0,0 STARLINK-4057,1 53269U 22086AD  23084.13623430  .00037554  00000-0  23605-2 0  9994,2 53269  53.2167 354.9128 0001332  74.1252 285.9887 15.08911542 37893,6917.662,95.433,540.448,538.605,0.0
53269.0,STARLINK-4057,PAYLOAD,2023-03-25 22:20:50,15.08814979,0.0001372,53.2167,351.3435,41.5496,318.56,0.00098884,0.00015474,0.0,0 STARLINK-4057,1 53269U 22086AD  23084.93113465  .00015474  00000-0  98884-3 0  9993,2 53269  53.2167 351.3435 0001372  41.5496 318.5600 15.08814979 38193,6917.957,95.439,540.771,538.873,0.0
53269.0,STARLINK-4057,PAYLOAD,2023-03-26 04:42:23,15.08805881,0.0001347,53.2169,350.1554,81.3626,278.7518,0.0017133,0.00027059,0.0,0 STARLINK-4057,1 53269U 22086AD  23085.19610180  .00027059  00000-0  17133-2 0  9997,2 53269  53.2169 350.1554 0001347  81.3626 278.7518 15.08805881 38055,6917.985,95.44,540.782,538.918,0.0
53269.0,STARLINK-4057,PAYLOAD,2023-03-26 22:11:38,15.08844437,0.0001306,53.2171,346.8845,80.847,279.267,0.0017576,0.00027798,0.0,0 STARLINK-4057,1 53269U 22086AD  23085.92474884  .00027798  00000-0  17576-2 0  9998,2 53269  53.2171 346.8845 0001306  80.8470 279.2670 15.08844437 38346,6917.867,95.437,540.635,538.828,0.0
53269.0,STARLINK-4057,PAYLOAD,2023-03-26 23:47:01,15.08849727,0.0001312,53.2171,346.5872,82.7535,277.3606,0.001862,0.00029478,0.0,0 STARLINK-4057,1 53269U 22086AD  23085.99098825  .00029478  00000-0  18620-2 0  9990,2 53269  53.2171 346.5872 0001312  82.7535 277.3606 15.08849727 38359,6917.851,95.437,540.623,538.808,0.0
53269.0,STARLINK-4057,PAYLOAD,2023-03-27 20:27:01,15.08867372,7.98e-05,53.2178,342.7216,79.836,280.2722,0.0014123,0.00022277,0.0,0 STARLINK-4057,1 53269U 22086AD  23086.85210071  .00022277  00000-0  14123-2 0  9999,2 53269  53.2178 342.7216 0000798  79.8360 280.2722 15.08867372 38309,6917.797,95.436,540.214,539.11,0.0
53269.0,STARLINK-4057,PAYLOAD,2023-03-27 22:02:24,15.08869731,0.0001099,53.2178,342.4241,98.9993,261.1124,0.0013614,0.00021463,0.0,0 STARLINK-4057,1 53269U 22086AD  23086.91833909  .00021463  00000-0  13614-2 0  9997,2 53269  53.2178 342.4241 0001099  98.9993 261.1124 15.08869731 38498,6917.79,95.436,540.415,538.894,0.0
53269.0,STARLINK-4057,PAYLOAD,2023-03-28 02:48:33,15.0888164,0.0001033,53.2176,341.5316,88.7303,271.3808,0.0017305,0.00027392,0.0,0 STARLINK-4057,1 53269U 22086AD  23087.11705393  .00027392  00000-0  17305-2 0  9993,2 53269  53.2176 341.5316 0001033  88.7303 271.3808 15.08881640 38528,6917.753,95.435,540.333,538.904,0.0
53269.0,STARLINK-4057,PAYLOAD,2023-03-28 20:17:48,15.08845097,0.0001133,53.2177,338.2613,98.7821,261.33,0.00093748,0.00014666,0.0,0 STARLINK-4057,1 53269U 22086AD  23087.84569823  .00014666  00000-0  93748-3 0  9995,2 53269  53.2177 338.2613 0001133  98.7821 261.3300 15.08845097 38633,6917.865,95.437,540.514,538.946,0.0
53269.0,STARLINK-4057,PAYLOAD,2023-03-28 23:28:34,15.08850062,0.0001098,53.2176,337.6673,72.3691,287.7421,0.0004671,7.156e-05,0.0,0 STARLINK-4057,1 53269U 22086AD  23087.97817731  .00007156  00000-0  46710-3 0  9996,2 53269  53.2176 337.6673 0001098  72.3691 287.7421 15.08850062 38470,6917.85,95.437,540.474,538.955,0.0
53269.0,STARLINK-4057,PAYLOAD,2023-03-29 02:39:20,15.08857142,0.0001147,53.2177,337.0703,70.041,290.0706,0.00084592,0.00013207,0.0,0 STARLINK-4057,1 53269U 22086AD  23088.11065612  .00013207  00000-0  84592-3 0  9990,2 53269  53.2177 337.0703 0001147  70.0410 290.0706 15.08857142 38679,6917.828,95.436,540.486,538.9,0.0
53269.0,STARLINK-4057,PAYLOAD,2023-03-29 20:08:35,15.08836156,0.0001181,53.2177,333.7989,89.5958,270.5169,0.0010826,0.00016982,0.0,0 STARLINK-4057,1 53269U 22086AD  23088.83930338  .00016982  00000-0  10826-2 0  9996,2 53269  53.2177 333.7989 0001181  89.5958 270.5169 15.08836156 38609,6917.892,95.438,540.574,538.94,0.0
